CCSDS_OMM_VERS = 2.0
CREATION_DATE  = 
ORIGINATOR     = 

OBJECT_NAME    = SL-16 R/B
OBJECT_ID      = 1998-043G
CENTER_NAME    = EARTH
REF_FRAME      = TEME
TIME_SYSTEM    = UTC
MEAN_ELEMENT_THEORY = SGP/SGP4

EPOCH          = 2025-12-03T21:17:57.376032
MEAN_MOTION    = 14.26022274
ECCENTRICITY   = .00089054
INCLINATION    = 98.8109
RA_OF_ASC_NODE = 285.6564
ARG_OF_PERICENTER = 295.3834
MEAN_ANOMALY   = 64.6423

EPHEMERIS_TYPE = 0
CLASSIFICATION_TYPE = U
NORAD_CAT_ID   = 25400
ELEMENT_SET_NO = 999
REV_AT_EPOCH   = 42533
BSTAR          = .86364945E-4
MEAN_MOTION_DOT = .161E-5
MEAN_MOTION_DDOT = 0

CCSDS_OMM_VERS = 2.0
CREATION_DATE  = 
ORIGINATOR     = 

OBJECT_NAME    = SL-16 R/B
OBJECT_ID      = 1998-045B
CENTER_NAME    = EARTH
REF_FRAME      = TEME
TIME_SYSTEM    = UTC
MEAN_ELEMENT_THEORY = SGP/SGP4

EPOCH          = 2025-12-03T20:45:22.475808
MEAN_MOTION    = 14.16175541
ECCENTRICITY   = .0007436
INCLINATION    = 71.0126
RA_OF_ASC_NODE = 23.0906
ARG_OF_PERICENTER = 190.5844
MEAN_ANOMALY   = 169.5124

EPHEMERIS_TYPE = 0
CLASSIFICATION_TYPE = U
NORAD_CAT_ID   = 25407
ELEMENT_SET_NO = 999
REV_AT_EPOCH   = 41353
BSTAR          = .8370833E-4
MEAN_MOTION_DOT = .118E-5
MEAN_MOTION_DDOT = 0

CCSDS_OMM_VERS = 2.0
CREATION_DATE  = 
ORIGINATOR     = 

OBJECT_NAME    = ISS (ZARYA)
OBJECT_ID      = 1998-067A
CENTER_NAME    = EARTH
REF_FRAME      = TEME
TIME_SYSTEM    = UTC
MEAN_ELEMENT_THEORY = SGP/SGP4

EPOCH          = 2025-12-03T21:33:39.277728
MEAN_MOTION    = 15.49284650
ECCENTRICITY   = .00035922
INCLINATION    = 51.6303
RA_OF_ASC_NODE = 186.2514
ARG_OF_PERICENTER = 201.3576
MEAN_ANOMALY   = 158.7263

EPHEMERIS_TYPE = 0
CLASSIFICATION_TYPE = U
NORAD_CAT_ID   = 25544
ELEMENT_SET_NO = 999
REV_AT_EPOCH   = 54148
BSTAR          = .25253496E-3
MEAN_MOTION_DOT = .13627E-3
MEAN_MOTION_DDOT = 0

CCSDS_OMM_VERS = 2.0
CREATION_DATE  = 
ORIGINATOR     = 

OBJECT_NAME    = CZ-4B R/B
OBJECT_ID      = 1999-025C
CENTER_NAME    = EARTH
REF_FRAME      = TEME
TIME_SYSTEM    = UTC
MEAN_ELEMENT_THEORY = SGP/SGP4

EPOCH          = 2025-12-03T21:10:11.634240
MEAN_MOTION    = 14.18240417
ECCENTRICITY   = .00361156
INCLINATION    = 98.6780
RA_OF_ASC_NODE = 19.3597
ARG_OF_PERICENTER = 260.1755
MEAN_ANOMALY   = 273.9029

EPHEMERIS_TYPE = 0
CLASSIFICATION_TYPE = U
NORAD_CAT_ID   = 25732
ELEMENT_SET_NO = 999
REV_AT_EPOCH   = 37458
BSTAR          = .11459207E-3
MEAN_MOTION_DOT = .194E-5
MEAN_MOTION_DDOT = 0

CCSDS_OMM_VERS = 2.0
CREATION_DATE  = 
ORIGINATOR     = 

OBJECT_NAME    = OKEAN-O
OBJECT_ID      = 1999-039A
CENTER_NAME    = EARTH
REF_FRAME      = TEME
TIME_SYSTEM    = UTC
MEAN_ELEMENT_THEORY = SGP/SGP4

EPOCH          = 2025-12-03T17:32:31.958016
MEAN_MOTION    = 14.80135686
ECCENTRICITY   = .00008074
INCLINATION    = 97.9616
RA_OF_ASC_NODE = 33.5100
ARG_OF_PERICENTER = 77.9819
MEAN_ANOMALY   = 282.1484

EPHEMERIS_TYPE = 0
CLASSIFICATION_TYPE = U
NORAD_CAT_ID   = 25860
ELEMENT_SET_NO = 999
REV_AT_EPOCH   = 42019
BSTAR          = .16084303E-3
MEAN_MOTION_DOT = .1168E-4
MEAN_MOTION_DDOT = 0

CCSDS_OMM_VERS = 2.0
CREATION_DATE  = 
ORIGINATOR     = 

OBJECT_NAME    = SL-16 R/B
OBJECT_ID      = 1999-039B
CENTER_NAME    = EARTH
REF_FRAME      = TEME
TIME_SYSTEM    = UTC
MEAN_ELEMENT_THEORY = SGP/SGP4

EPOCH          = 2025-12-03T17:37:55.541568
MEAN_MOTION    = 14.81565116
ECCENTRICITY   = .0014256
INCLINATION    = 98.0139
RA_OF_ASC_NODE = 31.8849
ARG_OF_PERICENTER = 204.2676
MEAN_ANOMALY   = 155.7866

EPHEMERIS_TYPE = 0
CLASSIFICATION_TYPE = U
NORAD_CAT_ID   = 25861
ELEMENT_SET_NO = 999
REV_AT_EPOCH   = 42265
BSTAR          = .13931056E-3
MEAN_MOTION_DOT = .1041E-4
MEAN_MOTION_DDOT = 0

CCSDS_OMM_VERS = 2.0
CREATION_DATE  = 
ORIGINATOR     = 

OBJECT_NAME    = DELTA 2 R/B
OBJECT_ID      = 1999-041E
CENTER_NAME    = EARTH
REF_FRAME      = TEME
TIME_SYSTEM    = UTC
MEAN_ELEMENT_THEORY = SGP/SGP4

EPOCH          = 2025-12-03T17:17:29.693184
MEAN_MOTION    = 14.11363114
ECCENTRICITY   = .05048251
INCLINATION    = 51.7623
RA_OF_ASC_NODE = 324.4495
ARG_OF_PERICENTER = 65.1848
MEAN_ANOMALY   = 300.0717

EPHEMERIS_TYPE = 0
CLASSIFICATION_TYPE = U
NORAD_CAT_ID   = 25876
ELEMENT_SET_NO = 999
REV_AT_EPOCH   = 34947
BSTAR          = .33173207E-3
MEAN_MOTION_DOT = .1816E-4
MEAN_MOTION_DDOT = 0

CCSDS_OMM_VERS = 2.0
CREATION_DATE  = 
ORIGINATOR     = 

OBJECT_NAME    = HELIOS 1B
OBJECT_ID      = 1999-064A
CENTER_NAME    = EARTH
REF_FRAME      = TEME
TIME_SYSTEM    = UTC
MEAN_ELEMENT_THEORY = SGP/SGP4

EPOCH          = 2025-12-03T15:41:06.098784
MEAN_MOTION    = 14.87219030
ECCENTRICITY   = .00021421
INCLINATION    = 98.1755
RA_OF_ASC_NODE = 232.0496
ARG_OF_PERICENTER = 54.3264
MEAN_ANOMALY   = 305.8150

EPHEMERIS_TYPE = 0
CLASSIFICATION_TYPE = U
NORAD_CAT_ID   = 25977
ELEMENT_SET_NO = 999
REV_AT_EPOCH   = 67098
BSTAR          = .38280566E-3
MEAN_MOTION_DOT = .3389E-4
MEAN_MOTION_DDOT = 0

CCSDS_OMM_VERS = 2.0
CREATION_DATE  = 
ORIGINATOR     = 

OBJECT_NAME    = TERRA
OBJECT_ID      = 1999-068A
CENTER_NAME    = EARTH
REF_FRAME      = TEME
TIME_SYSTEM    = UTC
MEAN_ELEMENT_THEORY = SGP/SGP4

EPOCH          = 2025-12-03T22:05:08.452608
MEAN_MOTION    = 14.60937035
ECCENTRICITY   = .00034241
INCLINATION    = 97.9761
RA_OF_ASC_NODE = 29.9277
ARG_OF_PERICENTER = 115.5396
MEAN_ANOMALY   = 58.1773

EPHEMERIS_TYPE = 0
CLASSIFICATION_TYPE = U
NORAD_CAT_ID   = 25994
ELEMENT_SET_NO = 999
REV_AT_EPOCH   = 38109
BSTAR          = .2141E-3
MEAN_MOTION_DOT = .1004E-4
MEAN_MOTION_DDOT = 0

CCSDS_OMM_VERS = 2.0
CREATION_DATE  = 
ORIGINATOR     = 

OBJECT_NAME    = SL-16 R/B
OBJECT_ID      = 2000-006B
CENTER_NAME    = EARTH
REF_FRAME      = TEME
TIME_SYSTEM    = UTC
MEAN_ELEMENT_THEORY = SGP/SGP4

EPOCH          = 2025-12-03T22:13:31.638432
MEAN_MOTION    = 14.15808246
ECCENTRICITY   = .00179975
INCLINATION    = 71.0028
RA_OF_ASC_NODE = 299.1892
ARG_OF_PERICENTER = 320.9522
MEAN_ANOMALY   = 39.0300

EPHEMERIS_TYPE = 0
CLASSIFICATION_TYPE = U
NORAD_CAT_ID   = 26070
ELEMENT_SET_NO = 999
REV_AT_EPOCH   = 33500
BSTAR          = .18932132E-3
MEAN_MOTION_DOT = .325E-5
MEAN_MOTION_DDOT = 0

CCSDS_OMM_VERS = 2.0
CREATION_DATE  = 
ORIGINATOR     = 

OBJECT_NAME    = TITAN 4B R/B
OBJECT_ID      = 2000-047B
CENTER_NAME    = EARTH
REF_FRAME      = TEME
TIME_SYSTEM    = UTC
MEAN_ELEMENT_THEORY = SGP/SGP4

EPOCH          = 2025-12-03T22:13:11.903808
MEAN_MOTION    = 15.08677148
ECCENTRICITY   = .00396433
INCLINATION    = 67.9897
RA_OF_ASC_NODE = 309.6070
ARG_OF_PERICENTER = 155.1109
MEAN_ANOMALY   = 205.1963

EPHEMERIS_TYPE = 0
CLASSIFICATION_TYPE = U
NORAD_CAT_ID   = 26474
ELEMENT_SET_NO = 999
REV_AT_EPOCH   = 37846
BSTAR          = .43560739E-3
MEAN_MOTION_DOT = .684E-4
MEAN_MOTION_DDOT = 0

CCSDS_OMM_VERS = 2.0
CREATION_DATE  = 
ORIGINATOR     = 

OBJECT_NAME    = ENVISAT
OBJECT_ID      = 2002-009A
CENTER_NAME    = EARTH
REF_FRAME      = TEME
TIME_SYSTEM    = UTC
MEAN_ELEMENT_THEORY = SGP/SGP4

EPOCH          = 2025-12-03T20:46:34.236192
MEAN_MOTION    = 14.38994215
ECCENTRICITY   = .0001152
INCLINATION    = 98.3586
RA_OF_ASC_NODE = 288.8317
ARG_OF_PERICENTER = 81.9793
MEAN_ANOMALY   = 336.4587

EPHEMERIS_TYPE = 0
CLASSIFICATION_TYPE = U
NORAD_CAT_ID   = 27386
ELEMENT_SET_NO = 999
REV_AT_EPOCH   = 24539
BSTAR          = .10686747E-3
MEAN_MOTION_DOT = .287E-5
MEAN_MOTION_DDOT = 0

