SL-16 R/B               
1 25400U 98043G   25337.88746963  .00000161  00000+0  86365-4 0  9995
2 25400  98.8109 285.6564 0008905 295.3834  64.6423 14.26022274425332
SL-16 R/B               
1 25407U 98045B   25337.86484347  .00000118  00000+0  83708-4 0  9997
2 25407  71.0126  23.0906 0007436 190.5844 169.5124 14.16175541413537
ISS (ZARYA)             
1 25544U 98067A   25337.89837127  .00013627  00000+0  25253-3 0  9993
2 25544  51.6303 186.2514 0003592 201.3576 158.7263 15.49284650541488
CZ-4B R/B               
1 25732U 99025C   25337.88207910  .00000194  00000+0  11459-3 0  9995
2 25732  98.6780  19.3597 0036115 260.1755 273.9029 14.18240417374586
OKEAN-O                 
1 25860U 99039A   25337.73092544  .00001168  00000+0  16084-3 0  9992
2 25860  97.9616  33.5100 0000807  77.9819 282.1484 14.80135686420196
SL-16 R/B               
1 25861U 99039B   25337.73467062  .00001041  00000+0  13931-3 0  9992
2 25861  98.0139  31.8849 0014256 204.2676 155.7866 14.81565116422657
DELTA 2 R/B             
1 25876U 99041E   25337.72048256  .00001816  00000+0  33173-3 0  9990
2 25876  51.7623 324.4495 0504825  65.1848 300.0717 14.11363114349471
HELIOS 1B               
1 25977U 99064A   25337.65354281  .00003389  00000+0  38281-3 0  9999
2 25977  98.1755 232.0496 0002142  54.3264 305.8150 14.87219030670983
TERRA                   
1 25994U 99068A   25337.92023672  .00001004  00000+0  21410-3 0  9997
2 25994  97.9761  29.9277 0003424 115.5396  58.1773 14.60937035381099
SL-16 R/B               
1 26070U 00006B   25337.92606063  .00000325  00000+0  18932-3 0  9998
2 26070  71.0028 299.1892 0017997 320.9522  39.0300 14.15808246335006
TITAN 4B R/B            
1 26474U 00047B   25337.92583222  .00006840  00000+0  43561-3 0  9996
2 26474  67.9897 309.6070 0039643 155.1109 205.1963 15.08677148378464
ENVISAT                 
1 27386U 02009A   25337.86567403  .00000287  00000+0  10687-3 0  9997
2 27386  98.3586 288.8317 0001152  81.9793 336.4587 14.38994215245395
